#dP2018  7 15  0  0  0.00000000      96 __u+U ITR00 FIT  IAC
## 2010      0.00000000   900.00000000 58314 0.0000000000000
+   86   C01C02C03C04C05C06C07C08C09C10C11C12C13C14E01E02E03
+        E04E05E07E08E09E11E12E14E18E19E24E26E30G01G02G03G04
+        G05G06G07G08G09G10G11G12G13G14G15G16G17G18G19G20G21
+        G22G23G24G25G26G27G28G29G30G31G32J01R01R02R03R04R05
+        R07R08R09R10R11R13R14R15R16R17R18R19R20R21R22R23R24
+        R26  0  0  0  0  0  0  0  0  0  0  0  0  0  0  0  0
++         0  0  0  0  0  0  0  0  0  0  0  0  0  0  0  0  0
++         0  0  0  0  0  0  0  0  0  0  0  0  0  0  0  0  0
++         0  0  0  0  0  0  0  0  0  0  0  0  0  0  0  0  0
++         0  0  0  0  0  0  0  0  0  0  0  0  0  0  0  0  0
++         0  0  0  0  0  0  0  0  0  0  0  0  0  0  0  0  0
++         0  0  0  0  0  0  0  0  0  0  0  0  0  0  0  0  0
%c M  cc GPS ccc cccc cccc cccc cccc ccccc ccccc ccccc ccccc
%c cc cc ccc ccc cccc cccc cccc cccc ccccc ccccc ccccc ccccc
%f  0.0000000  0.000000000  0.00000000000  0.000000000000000
%f  0.0000000  0.000000000  0.00000000000  0.000000000000000
%i    0    0    0    0      0      0      0      0         0
%i    0    0    0    0      0      0      0      0         0
/*                                                          
/*   RSA / INFORMATION & ANALYSIS CENTER (IAC) OF MCC       
/*   ULTRA-RAPID DETERMINATION                              
/* PCV:IGS14_2000 OL/AL:FES2004  NONE     YN ORB:CoN CLK:CoN
*  2018 07 15 19  0  0.00000000
PC01 -32342.476112  27076.785010   -123.029382    343.584961
PC02   4376.352949  41928.006127   -947.223761    -33.029012
PC03 -14800.363795  39450.108498   -796.955535   -246.101037
PC04 -39624.633472  14414.671384   -419.123835   -266.119986
PC05  21915.984544  36015.455033   -612.915219    299.626219
PC06 -23563.296143  29048.012002  19435.866497    101.938345
PC07 -12350.041406  36528.892735  17721.294960     66.148954
PC08  -9704.853424  19914.429219 -35814.465774    439.526801
PC09 -10695.305924  28605.731703  29122.272077     52.808426
PC10  -1399.739518  42162.456892   4115.709219   -388.653827
PC11  27814.266956     54.119814   1741.685388   -592.726503
PC12  19952.388599  11206.103115 -15857.285110    517.041894
PC13   2633.096506  26642.985058 -32502.401866   -179.522331
PC14  19135.002288  -4449.567506  19900.202068    240.735953
PE01   1362.705286 -28551.635585  -7661.938022   -391.357814
PE02  -1336.033588  28571.631332   7626.918591     19.641445
PE03 -10425.999189  22429.081192  16280.195796    -54.766687
PE04  -9224.326008 -14512.614537 -24080.691776    -75.891712
PE05 -24049.333242  17222.380661  -1106.398690    228.278738
PE07  23565.048866  -1936.811411  17817.766960     -2.604347
PE08   9271.155082  14327.097212  24197.842601   6543.525533
PE09 -23476.976781   2250.223761 -17881.669300   6734.149606
PE11 -28092.799664  -7453.615822  -5558.861105   2466.390364
PE12 -19538.978247 -17716.691944  13414.229234   4608.474254
PE14 -25771.159401   7113.141268  -3046.520580   6550.873330
PE18  28486.269542   3488.364120  -9608.519092   6056.992346
PE19  12120.864556 -22482.114899 -14952.511812     -0.000456
PE24 -16460.888106  -6956.467775  23587.483500   6599.344961
PE26  20164.342532  -6738.367637  20591.654848   5706.290249
PE30  10663.645794  25168.546750 -11371.476603   5675.851851
PG01  21303.002795  11711.016493  10897.265992    -66.093017
PG02 -12976.699776 -21487.823512   9595.590945     56.947930
PG03  14949.901878   2918.428925  21733.083500    106.158039
PG04  -7922.756398  25188.951656   -311.020240     78.767018
PG05  -4652.352489 -21925.734820 -14190.859960     -4.566209
PG06    692.156386 -18273.704200  19281.898261    386.833055
PG07  16829.977420  -2745.360206 -20249.906017    158.405648
PG08  18912.429890   7315.666243 -17189.170826   -108.272968
PG09  25380.095785  -7693.937991  -1572.537536    513.642437
PG10 -10990.059826  23359.008712  -5827.830385    188.769981
PG11  24746.321862   9277.508561    827.080952   -729.906250
PG12 -12141.612416  -8753.395080  21766.146521    320.771899
PG13 -10679.060149 -13028.521302 -20641.824075    -92.387070
PG14  -4972.542624  15744.981377  21070.976993    -97.624362
PG15 -21546.914730  -4817.373094 -15253.595405   -350.695307
PG16   1364.753877  22375.507358 -14067.745759     17.643694
PG17  14983.860216 -14339.703086  16906.566388    -77.910790
PG18  20092.098028  17345.454282   1970.783840     33.996414
PG19   6531.639397 -14948.077760  20698.163715   -420.148662
PG20 -14133.858740  17089.934707 -14668.633365    512.445294
PG21 -13873.639411   7391.593483 -20611.479261   -367.085314
PG22  12913.860072  11828.283159  20217.820420   -458.712562
PG23  25176.521882    499.891326   9391.733281   -214.438978
PG24 -21740.029712 -13776.120643   7027.371336    -52.587071
PG25 -16052.649478   7510.029778  19522.852990   -616.575980
PG26  -4146.794578  25869.115626  -3911.994116    -82.860336
PG27   7262.617407  13392.660372 -21864.404370    360.781240
PG28  13536.094908 -21467.741126  -7294.850397    731.421368
PG29 -26150.542629   4623.369093    123.891178    414.240259
PG30   9378.191862 -12750.093554 -21299.508857     50.190413
PG31    302.723533  19234.877734  18162.043796    107.529378
PG32 -14454.865421  15369.074852  16122.280240   -474.461267
PJ01 -23227.277972  33617.724578  -5916.338572   -179.096842
PR01   3901.895858 -17559.081524 -18070.978056     29.115309
PR02 -11679.969405  -2986.240501 -22429.570705    319.836337
PR03 -18857.645063  12014.952856 -12193.516930    137.761028
PR04 -14706.291598  20080.617317   5570.701025    268.635222
PR05  -1933.024140  16386.736945  19454.636403    -40.519614
PR07  18955.144743 -12296.750923  11911.799428    -42.483296
PR08  15147.298236 -19945.051931  -4790.678664     22.275683
PR09  12761.418911  15116.827339 -16133.230731     18.247384
PR10  10485.078225  -2149.278949 -23175.270008     27.952195
PR11   2347.522209 -19243.038215 -16534.196234    -34.685397
PR13 -12814.758163 -15018.603042  16126.476283    -12.547142
PR14 -10724.977189   2227.254178  23047.999353     29.088403
PR15  -4433.926149  15996.065886  19340.485990    -13.191748
PR16   7312.417697  24341.182552   1360.855476     97.026912
PR17 -23548.004381   -699.614436  -9821.903184    148.148131
PR18 -11327.250565   7518.400182 -21561.284621    203.056927
PR19   7075.013628  11760.125105 -21506.675892    -56.500378
PR20  22500.635755   9224.160009  -7781.929867   -345.248811
PR21  23365.259121    509.810336  10187.401235      7.035529
PR22   9403.088281  -8201.342758  22267.437290    -55.816882
PR23 -11366.795783 -11725.126131  19580.896049    165.932451
PR24 -23093.156385  -8440.855479   6733.357679   -168.913736
PR26  22148.989528   9119.355753  -8730.674333     34.153632
EOF
